{
  "type": "FeatureCollection",
  "features": [
    {
      "type": "Feature",
      "properties": {
        "norad_id": 34560,
        "name": "COSMOS 2251 DEB",
        "group": "cosmos-2251-debris",
        "lat": 10.225817919349623,
        "lon": 122.68659956380068,
        "alt_km": 664.2020843936834,
        "timestamp": "2025-12-24T05:51:20.004013+00:00",
        "meta_object_name": "COSMOS 2251 DEB",
        "meta_object_id": "1993-036UW",
        "meta_epoch": "2025-12-22T08:17:49.177248",
        "meta_mean_motion": 14.72366661,
        "meta_eccentricity": 0.00139462,
        "meta_inclination": 74.0172,
        "meta_ra_of_asc_node": 123.4199,
        "meta_arg_of_pericenter": 205.974,
        "meta_mean_anomaly": 186.9081,
        "meta_ephemeris_type": 0,
        "meta_classification_type": "U",
        "meta_norad_cat_id": 34560,
        "meta_element_set_no": 999,
        "meta_rev_at_epoch": 88393,
        "meta_bstar": 0.0022337024,
        "meta_mean_motion_dot": 0.0001416,
        "meta_mean_motion_ddot": 0,
        "tle_line1": "1 34560U 93036UW  25356.34570807  .00014160  00000+0  22337-2 0  9994",
        "tle_line2": "2 34560  74.0172 123.4199 0013946 205.9740 186.9081 14.72366661883936"
      },
      "geometry": {
        "type": "Point",
        "coordinates": [
          122.68659956380068,
          10.225817919349623
        ]
      }
    },
    {
      "type": "Feature",
      "properties": {
        "norad_id": 34563,
        "name": "COSMOS 2251 DEB",
        "group": "cosmos-2251-debris",
        "lat": 28.64256980844574,
        "lon": -6.765291258663524,
        "alt_km": 741.0423575025607,
        "timestamp": "2025-12-24T05:51:20.004034+00:00",
        "meta_object_name": "COSMOS 2251 DEB",
        "meta_object_id": "1993-036UZ",
        "meta_epoch": "2025-12-23T23:05:47.587776",
        "meta_mean_motion": 14.46543092,
        "meta_eccentricity": 0.00139191,
        "meta_inclination": 74.0364,
        "meta_ra_of_asc_node": 182.755,
        "meta_arg_of_pericenter": 276.181,
        "meta_mean_anomaly": 207.9628,
        "meta_ephemeris_type": 0,
        "meta_classification_type": "U",
        "meta_norad_cat_id": 34563,
        "meta_element_set_no": 999,
        "meta_rev_at_epoch": 88359,
        "meta_bstar": 0.00041104461,
        "meta_mean_motion_dot": 1.456e-05,
        "meta_mean_motion_ddot": 0,
        "tle_line1": "1 34563U 93036UZ  25357.96235634  .00001456  00000+0  41104-3 0  9990",
        "tle_line2": "2 34563  74.0364 182.7550 0013919 276.1810 207.9628 14.46543092883598"
      },
      "geometry": {
        "type": "Point",
        "coordinates": [
          -6.765291258663524,
          28.64256980844574
        ]
      }
    },
    {
      "type": "Feature",
      "properties": {
        "norad_id": 34564,
        "name": "COSMOS 2251 DEB",
        "group": "cosmos-2251-debris",
        "lat": 45.62740303283056,
        "lon": -126.25397878354447,
        "alt_km": 751.6112323994548,
        "timestamp": "2025-12-24T05:51:20.004046+00:00",
        "meta_object_name": "COSMOS 2251 DEB",
        "meta_object_id": "1993-036VA",
        "meta_epoch": "2025-12-23T21:24:02.834208",
        "meta_mean_motion": 14.40707893,
        "meta_eccentricity": 0.00194024,
        "meta_inclination": 74.0313,
        "meta_ra_of_asc_node": 217.3791,
        "meta_arg_of_pericenter": 319.7348,
        "meta_mean_anomaly": 61.7572,
        "meta_ephemeris_type": 0,
        "meta_classification_type": "U",
        "meta_norad_cat_id": 34564,
        "meta_element_set_no": 999,
        "meta_rev_at_epoch": 88167,
        "meta_bstar": 0.00022068655,
        "meta_mean_motion_dot": 6.8e-06,
        "meta_mean_motion_ddot": 0,
        "tle_line1": "1 34564U 93036VA  25357.89169947  .00000680  00000+0  22069-3 0  9993",
        "tle_line2": "2 34564  74.0313 217.3791 0019402 319.7348  61.7572 14.40707893881674"
      },
      "geometry": {
        "type": "Point",
        "coordinates": [
          -126.25397878354447,
          45.62740303283056
        ]
      }
    },
    {
      "type": "Feature",
      "properties": {
        "norad_id": 34567,
        "name": "COSMOS 2251 DEB",
        "group": "cosmos-2251-debris",
        "lat": 53.700336402133615,
        "lon": -66.85185612721828,
        "alt_km": 801.1812569432414,
        "timestamp": "2025-12-24T05:51:20.004056+00:00",
        "meta_object_name": "COSMOS 2251 DEB",
        "meta_object_id": "1993-036VD",
        "meta_epoch": "2025-12-23T10:59:19.321728",
        "meta_mean_motion": 14.2402819,
        "meta_eccentricity": 0.00741334,
        "meta_inclination": 74.0409,
        "meta_ra_of_asc_node": 137.4896,
        "meta_arg_of_pericenter": 209.455,
        "meta_mean_anomaly": 205.9365,
        "meta_ephemeris_type": 0,
        "meta_classification_type": "U",
        "meta_norad_cat_id": 34567,
        "meta_element_set_no": 999,
        "meta_rev_at_epoch": 87277,
        "meta_bstar": 0.00022860258,
        "meta_mean_motion_dot": 5.15e-06,
        "meta_mean_motion_ddot": 0,
        "tle_line1": "1 34567U 93036VD  25357.45786252  .00000515  00000+0  22860-3 0  9998",
        "tle_line2": "2 34567  74.0409 137.4896 0074133 209.4550 205.9365 14.24028190872774"
      },
      "geometry": {
        "type": "Point",
        "coordinates": [
          -66.85185612721828,
          53.700336402133615
        ]
      }
    },
    {
      "type": "Feature",
      "properties": {
        "norad_id": 34569,
        "name": "COSMOS 2251 DEB",
        "group": "cosmos-2251-debris",
        "lat": -38.50385411608393,
        "lon": 164.1296557253863,
        "alt_km": 732.0148645568324,
        "timestamp": "2025-12-24T05:51:20.004067+00:00",
        "meta_object_name": "COSMOS 2251 DEB",
        "meta_object_id": "1993-036VF",
        "meta_epoch": "2025-12-23T11:37:49.326816",
        "meta_mean_motion": 14.24778042,
        "meta_eccentricity": 0.01578,
        "meta_inclination": 73.9893,
        "meta_ra_of_asc_node": 178.7069,
        "meta_arg_of_pericenter": 4.6429,
        "meta_mean_anomaly": 22.8276,
        "meta_ephemeris_type": 0,
        "meta_classification_type": "U",
        "meta_norad_cat_id": 34569,
        "meta_element_set_no": 999,
        "meta_rev_at_epoch": 87121,
        "meta_bstar": 0.00040063645,
        "meta_mean_motion_dot": 1.036e-05,
        "meta_mean_motion_ddot": 0,
        "tle_line1": "1 34569U 93036VF  25357.48459869  .00001036  00000+0  40064-3 0  9999",
        "tle_line2": "2 34569  73.9893 178.7069 0157800   4.6429  22.8276 14.24778042871217"
      },
      "geometry": {
        "type": "Point",
        "coordinates": [
          164.1296557253863,
          -38.50385411608393
        ]
      }
    },
    {
      "type": "Feature",
      "properties": {
        "norad_id": 34570,
        "name": "COSMOS 2251 DEB",
        "group": "cosmos-2251-debris",
        "lat": -57.84230948533029,
        "lon": 171.03826033348662,
        "alt_km": 1005.8361171944916,
        "timestamp": "2025-12-24T05:51:20.004077+00:00",
        "meta_object_name": "COSMOS 2251 DEB",
        "meta_object_id": "1993-036VG",
        "meta_epoch": "2025-12-23T06:40:44.080608",
        "meta_mean_motion": 13.99837278,
        "meta_eccentricity": 0.01902095,
        "meta_inclination": 73.9564,
        "meta_ra_of_asc_node": 199.9553,
        "meta_arg_of_pericenter": 80.1017,
        "meta_mean_anomaly": 34.9685,
        "meta_ephemeris_type": 0,
        "meta_classification_type": "U",
        "meta_norad_cat_id": 34570,
        "meta_element_set_no": 999,
        "meta_rev_at_epoch": 85748,
        "meta_bstar": 0.00047470822,
        "meta_mean_motion_dot": 7.91e-06,
        "meta_mean_motion_ddot": 0,
        "tle_line1": "1 34570U 93036VG  25357.27828797  .00000791  00000+0  47471-3 0  9994",
        "tle_line2": "2 34570  73.9564 199.9553 0190209  80.1017  34.9685 13.99837278857488"
      },
      "geometry": {
        "type": "Point",
        "coordinates": [
          171.03826033348662,
          -57.84230948533029
        ]
      }
    },
    {
      "type": "Feature",
      "properties": {
        "norad_id": 34571,
        "name": "COSMOS 2251 DEB",
        "group": "cosmos-2251-debris",
        "lat": 19.403786195225585,
        "lon": 166.65883819325956,
        "alt_km": 774.7030777839809,
        "timestamp": "2025-12-24T05:51:20.004087+00:00",
        "meta_object_name": "COSMOS 2251 DEB",
        "meta_object_id": "1993-036VH",
        "meta_epoch": "2025-12-21T21:25:20.768736",
        "meta_mean_motion": 14.4895116,
        "meta_eccentricity": 0.00652122,
        "meta_inclination": 74.039,
        "meta_ra_of_asc_node": 165.2791,
        "meta_arg_of_pericenter": 198.2553,
        "meta_mean_anomaly": 161.6266,
        "meta_ephemeris_type": 0,
        "meta_classification_type": "U",
        "meta_norad_cat_id": 34571,
        "meta_element_set_no": 999,
        "meta_rev_at_epoch": 87426,
        "meta_bstar": 0.0025690074,
        "meta_mean_motion_dot": 9.985e-05,
        "meta_mean_motion_ddot": 0,
        "tle_line1": "1 34571U 93036VH  25355.89260149  .00009985  00000+0  25690-2 0  9994",
        "tle_line2": "2 34571  74.0390 165.2791 0065212 198.2553 161.6266 14.48951160874269"
      },
      "geometry": {
        "type": "Point",
        "coordinates": [
          166.65883819325956,
          19.403786195225585
        ]
      }
    }
  ]
}